{
  "norad_id": 60496,
  "name": "TYCHE",
  "history": [
    {
      "epoch": "2026-03-28T22:22:25.236192Z",
      "apogee_km": 491.1699515497803,
      "perigee_km": 485.3151270442122,
      "latitude_deg": -1.3513097922723869e-05,
      "longitude_deg": 4.870360748584002,
      "height_km": 494.24812353574106,
      "semi_major_axis_km": 6866.379539296996,
      "eccentricity": 0.00042634,
      "inclination_deg": 97.3783,
      "raan_deg": 166.8211,
      "arg_perigee_deg": 173.1737,
      "mean_anomaly_deg": 186.956,
      "mean_motion_rev_day": 15.25847231
    },
    {
      "epoch": "2026-03-29T04:40:09.463008Z",
      "apogee_km": 491.16203833651434,
      "perigee_km": 485.28855202921477,
      "latitude_deg": -4.393132328547511e-05,
      "longitude_deg": -89.56356552879338,
      "height_km": 494.2346387623886,
      "semi_major_axis_km": 6866.362295182865,
      "eccentricity": 0.0004277,
      "inclination_deg": 97.3783,
      "raan_deg": 167.08,
      "arg_perigee_deg": 172.3354,
      "mean_anomaly_deg": 187.795,
      "mean_motion_rev_day": 15.25852979
    },
    {
      "epoch": "2026-03-30T04:16:39.910080Z",
      "apogee_km": 491.18697164377045,
      "perigee_km": 485.1858050023766,
      "latitude_deg": 3.7821403246729596e-05,
      "longitude_deg": -83.68920313990773,
      "height_km": 494.2303088812755,
      "semi_major_axis_km": 6866.323388323073,
      "eccentricity": 0.000437,
      "inclination_deg": 97.3784,
      "raan_deg": 168.0508,
      "arg_perigee_deg": 169.0033,
      "mean_anomaly_deg": 191.1302,
      "mean_motion_rev_day": 15.25865948
    },
    {
      "epoch": "2026-03-30T21:35:25.711296Z",
      "apogee_km": 491.20002048019614,
      "perigee_km": 485.10632527756934,
      "latitude_deg": -2.0040822165730622e-05,
      "longitude_deg": 16.620858494265214,
      "height_km": 494.216310781601,
      "semi_major_axis_km": 6866.290172878883,
      "eccentricity": 0.00044374,
      "inclination_deg": 97.3783,
      "raan_deg": 168.7627,
      "arg_perigee_deg": 166.6877,
      "mean_anomaly_deg": 193.4479,
      "mean_motion_rev_day": 15.2587702
    },
    {
      "epoch": "2026-03-31T19:37:28.858368Z",
      "apogee_km": 491.229903736953,
      "perigee_km": 485.0022122133687,
      "latitude_deg": -1.7837555844890055e-06,
      "longitude_deg": 46.10883185897058,
      "height_km": 494.20771777392184,
      "semi_major_axis_km": 6866.25305797516,
      "eccentricity": 0.0004535,
      "inclination_deg": 97.3782,
      "raan_deg": 169.6687,
      "arg_perigee_deg": 164.0417,
      "mean_anomaly_deg": 196.0965,
      "mean_motion_rev_day": 15.25889392
    },
    {
      "epoch": "2026-04-01T20:48:23.121792Z",
      "apogee_km": 491.2609564520408,
      "perigee_km": 484.90009253734934,
      "latitude_deg": 4.2454632028059944e-05,
      "longitude_deg": 28.3840525798051,
      "height_km": 494.1838166579966,
      "semi_major_axis_km": 6866.217524494695,
      "eccentricity": 0.0004632,
      "inclination_deg": 97.378,
      "raan_deg": 170.7042,
      "arg_perigee_deg": 160.9308,
      "mean_anomaly_deg": 199.2105,
      "mean_motion_rev_day": 15.25901237
    },
    {
      "epoch": "2026-04-02T20:24:50.677920Z",
      "apogee_km": 491.26030433308733,
      "perigee_km": 484.78551553801844,
      "latitude_deg": -2.6164981647851716e-06,
      "longitude_deg": 34.27051002300896,
      "height_km": 494.1155605012629,
      "semi_major_axis_km": 6866.159909935553,
      "eccentricity": 0.0004715,
      "inclination_deg": 97.3777,
      "raan_deg": 171.675,
      "arg_perigee_deg": 157.7198,
      "mean_anomaly_deg": 202.4246,
      "mean_motion_rev_day": 15.25920443
    },
    {
      "epoch": "2026-04-02T21:59:16.484928Z",
      "apogee_km": 491.2613548956906,
      "perigee_km": 484.77874138026164,
      "latitude_deg": 8.604372882136277e-05,
      "longitude_deg": 10.6630343340125,
      "height_km": 494.1116790620325,
      "semi_major_axis_km": 6866.157048137976,
      "eccentricity": 0.00047207,
      "inclination_deg": 97.3777,
      "raan_deg": 171.7397,
      "arg_perigee_deg": 157.5065,
      "mean_anomaly_deg": 202.6382,
      "mean_motion_rev_day": 15.25921397
    },
    {
      "epoch": "2026-04-03T20:01:17.237856Z",
      "apogee_km": 491.2647001464993,
      "perigee_km": 484.6691207301319,
      "latitude_deg": -2.5139790338463556e-05,
      "longitude_deg": 40.1611260105801,
      "height_km": 494.0453535644028,
      "semi_major_axis_km": 6866.103910438315,
      "eccentricity": 0.0004803,
      "inclination_deg": 97.3774,
      "raan_deg": 172.6458,
      "arg_perigee_deg": 154.7178,
      "mean_anomaly_deg": 205.4296,
      "mean_motion_rev_day": 15.25939111
    },
    {
      "epoch": "2026-04-04T19:37:42.732480Z",
      "apogee_km": 491.2786627172645,
      "perigee_km": 484.5664029179816,
      "latitude_deg": -1.4450601211771245e-05,
      "longitude_deg": 46.056087843159816,
      "height_km": 493.98839972588064,
      "semi_major_axis_km": 6866.059532817622,
      "eccentricity": 0.0004888,
      "inclination_deg": 97.3771,
      "raan_deg": 173.6165,
      "arg_perigee_deg": 152.2346,
      "mean_anomaly_deg": 207.9154,
      "mean_motion_rev_day": 15.25953905
    },
    {
      "epoch": "2026-04-05T12:56:24.896256Z",
      "apogee_km": 491.27941073102556,
      "perigee_km": 484.5020920581801,
      "latitude_deg": -3.438905253533078e-05,
      "longitude_deg": 146.38134011610802,
      "height_km": 493.92348457760147,
      "semi_major_axis_km": 6866.027751394603,
      "eccentricity": 0.00049354,
      "inclination_deg": 97.3769,
      "raan_deg": 174.3284,
      "arg_perigee_deg": 150.0756,
      "mean_anomaly_deg": 210.0765,
      "mean_motion_rev_day": 15.259645
    },
    {
      "epoch": "2026-04-05T20:48:33.041376Z",
      "apogee_km": 491.28277170330693,
      "perigee_km": 484.47717567898326,
      "latitude_deg": -7.497216425327958e-05,
      "longitude_deg": 28.347841314871154,
      "height_km": 493.8958873319204,
      "semi_major_axis_km": 6866.016973691145,
      "eccentricity": 0.0004956,
      "inclination_deg": 97.3768,
      "raan_deg": 174.652,
      "arg_perigee_deg": 149.113,
      "mean_anomaly_deg": 211.04,
      "mean_motion_rev_day": 15.25968093
    },
    {
      "epoch": "2026-04-06T04:40:41.124288Z",
      "apogee_km": 491.285082283699,
      "perigee_km": 484.4512100416214,
      "latitude_deg": 3.641494892644886e-05,
      "longitude_deg": -89.68541727748735,
      "height_km": 493.8680514126365,
      "semi_major_axis_km": 6866.00514616266,
      "eccentricity": 0.00049766,
      "inclination_deg": 97.3767,
      "raan_deg": 174.9756,
      "arg_perigee_deg": 148.2107,
      "mean_anomaly_deg": 211.9433,
      "mean_motion_rev_day": 15.25972036
    },
    {
      "epoch": "2026-04-07T12:09:12.807936Z",
      "apogee_km": 491.32492627628835,
      "perigee_km": 484.331528734162,
      "latitude_deg": -8.24731932718925e-06,
      "longitude_deg": 158.18441826502055,
      "height_km": 493.76137161582847,
      "semi_major_axis_km": 6865.965227505225,
      "eccentricity": 0.00050928,
      "inclination_deg": 97.3765,
      "raan_deg": 176.2701,
      "arg_perigee_deg": 144.2617,
      "mean_anomaly_deg": 215.8963,
      "mean_motion_rev_day": 15.25985344
    },
    {
      "epoch": "2026-04-07T20:01:20.566848Z",
      "apogee_km": 491.3354313715772,
      "perigee_km": 484.30194636390115,
      "latitude_deg": 4.207813323135658e-05,
      "longitude_deg": 40.152520991319314,
      "height_km": 493.73487713992444,
      "semi_major_axis_km": 6865.955688867739,
      "eccentricity": 0.0005122,
      "inclination_deg": 97.3764,
      "raan_deg": 176.5937,
      "arg_perigee_deg": 143.3495,
      "mean_anomaly_deg": 216.8095,
      "mean_motion_rev_day": 15.25988524
    }
  ]
}